[{"OBJECT_NAME":"TOMORROW-S3","OBJECT_ID":"2024-247R","EPOCH":"2026-03-09T11:56:51.820800","MEAN_MOTION":15.27672122,"ECCENTRICITY":3.967e-5,"INCLINATION":44.9999,"RA_OF_ASC_NODE":117.9871,"ARG_OF_PERICENTER":320.9462,"MEAN_ANOMALY":39.1392,"EPHEMERIS_TYPE":0,"CLASSIFICATION_TYPE":"U","NORAD_CAT_ID":62392,"ELEMENT_SET_NO":999,"REV_AT_EPOCH":6770,"BSTAR":0.00028857954,"MEAN_MOTION_DOT":7.664e-5,"MEAN_MOTION_DDOT":0},{"OBJECT_NAME":"STARLINK-35996","OBJECT_ID":"2025-278K","EPOCH":"2026-03-09T10:22:44.358240","MEAN_MOTION":15.27581683,"ECCENTRICITY":0.00010291,"INCLINATION":42.9976,"RA_OF_ASC_NODE":115.4772,"ARG_OF_PERICENTER":262.9812,"MEAN_ANOMALY":97.0923,"EPHEMERIS_TYPE":0,"CLASSIFICATION_TYPE":"U","NORAD_CAT_ID":66800,"ELEMENT_SET_NO":999,"REV_AT_EPOCH":1517,"BSTAR":0.0011010582,"MEAN_MOTION_DOT":0.00030162,"MEAN_MOTION_DDOT":0}]
